NORAD_CAT_ID,OBJECT_NAME,OBJECT_TYPE,EPOCH,MEAN_MOTION,ECCENTRICITY,INCLINATION,RA_OF_ASC_NODE,ARG_OF_PERICENTER,MEAN_ANOMALY,BSTAR,MEAN_MOTION_DOT,MEAN_MOTION_DDOT,TLE_LINE0,TLE_LINE1,TLE_LINE2,SEMIMAJOR_AXIS,PERIOD,APOGEE,PERIGEE,DECAYED
53259.0,STARLINK-4140,PAYLOAD,2024-05-28 11:55:44,15.08849923,0.0001124,53.2161,232.5922,86.6627,273.4494,7.2153e-05,8.61e-06,0.0,0 STARLINK-4140,1 53259U 22086T   24149.49704259  .00000861  00000-0  72153-4 0  9999,2 53259  53.2161 232.5922 0001124  86.6627 273.4494 15.08849923102917,6917.85,95.437,540.493,538.937,0.0
53259.0,STARLINK-4140,PAYLOAD,2024-05-29 11:46:31,15.08841872,9.99e-05,53.2166,228.1325,87.5906,272.52,3.978e-05,3.45e-06,0.0,0 STARLINK-4140,1 53259U 22086T   24150.49064558  .00000345  00000-0  39780-4 0  9998,2 53259  53.2166 228.1325 0000999  87.5906 272.5200 15.08841872102885,6917.875,95.437,540.431,539.049,0.0
53259.0,STARLINK-4140,PAYLOAD,2024-05-30 11:37:18,15.08842937,0.0001174,53.2168,223.6726,96.853,263.2596,7.9024e-05,9.7e-06,0.0,0 STARLINK-4140,1 53259U 22086T   24151.48424316  .00000970  00000-0  79024-4 0  9999,2 53259  53.2168 223.6726 0001174  96.8530 263.2596 15.08842937103210,6917.871,95.437,540.549,538.924,0.0
53259.0,STARLINK-4140,PAYLOAD,2024-05-31 05:06:33,15.08841359,0.0001214,53.2168,220.4004,98.4875,261.6255,0.00010861,1.441e-05,0.0,0 STARLINK-4140,1 53259U 22086T   24152.21288236  .00001441  00000-0  10861-3 0  9997,2 53259  53.2168 220.4004 0001214  98.4875 261.6255 15.08841359103142,6917.876,95.437,540.581,538.901,0.0
53259.0,STARLINK-4140,PAYLOAD,2024-05-31 09:52:42,15.08839435,0.0001212,53.2169,219.5073,102.6613,257.4515,8.6992e-05,1.097e-05,0.0,0 STARLINK-4140,1 53259U 22086T   24152.41160381  .00001097  00000-0  86992-4 0  9995,2 53259  53.2169 219.5073 0001212 102.6613 257.4515 15.08839435103351,6917.882,95.438,540.586,538.909,0.0
53259.0,STARLINK-4140,PAYLOAD,2024-06-01 03:21:57,15.0883866,0.000118,53.2171,216.24,95.2557,264.8569,4.7262e-05,4.64e-06,0.0,0 STARLINK-4140,1 53259U 22086T   24153.14024634  .00000464  00000-0  47262-4 0  9990,2 53259  53.2171 216.2400 0001180  95.2557 264.8569 15.08838660103282,6917.884,95.438,540.566,538.933,0.0
53259.0,STARLINK-4140,PAYLOAD,2024-06-01 11:18:53,15.08830108,0.0001138,53.2165,214.751,90.8865,269.2257,-3.9479e-05,-9.16e-06,0.0,0 STARLINK-4140,1 53259U 22086T   24153.47145543 -.00000916  00000-0 -39479-4 0  9994,2 53259  53.2165 214.7510 0001138  90.8865 269.2257 15.08830108103334,6917.911,95.438,540.563,538.988,0.0
53259.0,STARLINK-4140,PAYLOAD,2024-06-02 11:09:40,15.08837993,0.000121,53.2162,210.2894,75.4748,284.6378,5.8848e-05,6.49e-06,0.0,0 STARLINK-4140,1 53259U 22086T   24154.46505154  .00000649  00000-0  58848-4 0  9994,2 53259  53.2162 210.2894 0001210  75.4748 284.6378 15.08837993103487,6917.887,95.438,540.589,538.914,0.0
53259.0,STARLINK-4140,PAYLOAD,2024-06-02 20:41:58,15.08846932,0.0001269,53.2165,208.5057,84.6829,275.4308,3.728e-05,3.06e-06,0.0,0 STARLINK-4140,1 53259U 22086T   24154.86248640  .00000306  00000-0  37280-4 0  9999,2 53259  53.2165 208.5057 0001269  84.6829 275.4308 15.08846932103728,6917.859,95.437,540.602,538.846,0.0
53259.0,STARLINK-4140,PAYLOAD,2024-06-03 11:00:27,15.08836212,0.0001322,53.2162,205.8298,86.7645,273.3498,0.00013743,1.9e-05,0.0,0 STARLINK-4140,1 53259U 22086T   24155.45865338  .00001900  00000-0  13743-3 0  9992,2 53259  53.2162 205.8298 0001322  86.7645 273.3498 15.08836212103818,6917.892,95.438,540.672,538.842,0.0
53259.0,STARLINK-4140,PAYLOAD,2024-06-03 20:32:45,15.08847221,0.0001326,53.2161,204.0452,84.4124,275.702,0.0001806,2.588e-05,0.0,0 STARLINK-4140,1 53259U 22086T   24155.85608533  .00002588  00000-0  18060-3 0  9998,2 53259  53.2161 204.0452 0001326  84.4124 275.7020 15.08847221103876,6917.858,95.437,540.641,538.806,0.0
53259.0,STARLINK-4140,PAYLOAD,2024-06-04 10:51:14,15.08844883,0.0001264,53.2156,201.3652,89.7953,270.3184,7.8594e-05,9.63e-06,0.0,0 STARLINK-4140,1 53259U 22086T   24156.45224806  .00000963  00000-0  78594-4 0  9996,2 53259  53.2156 201.3652 0001264  89.7953 270.3184 15.08844883103784,6917.865,95.437,540.605,538.856,0.0
53259.0,STARLINK-4140,PAYLOAD,2024-06-04 12:26:37,15.08846157,0.0001294,53.2156,201.0677,89.2209,270.8931,6.8802e-05,8.07e-06,0.0,0 STARLINK-4140,1 53259U 22086T   24156.51848744  .00000807  00000-0  68802-4 0  9994,2 53259  53.2156 201.0677 0001294  89.2209 270.8931 15.08846157103972,6917.862,95.437,540.622,538.831,0.0
53259.0,STARLINK-4140,PAYLOAD,2024-06-05 09:06:38,15.0884371,0.0001189,53.2149,197.2024,102.4831,257.6294,3.9884e-06,-2.24e-06,0.0,0 STARLINK-4140,1 53259U 22086T   24157.37960780 -.00000224  00000-0  39884-5 0  9997,2 53259  53.2149 197.2024 0001189 102.4831 257.6294 15.08843710104101,6917.869,95.437,540.557,538.912,0.0
53259.0,STARLINK-4140,PAYLOAD,2024-06-05 20:14:19,15.08844583,0.0001204,53.2148,195.1215,116.9663,243.1452,-3.9513e-06,-3.51e-06,0.0,0 STARLINK-4140,1 53259U 22086T   24157.84328571 -.00000351  00000-0 -39513-5 0  9996,2 53259  53.2148 195.1215 0001204 116.9663 243.1452 15.08844583103991,6917.866,95.437,540.564,538.898,0.0
53259.0,STARLINK-4140,PAYLOAD,2024-06-06 05:46:39,15.08832382,0.000141,53.216,193.338,98.024,262.0912,6.2465e-05,7.06e-06,0.0,0 STARLINK-4140,1 53259U 22086T   24158.24073347  .00000706  00000-0  62465-4 0  9992,2 53259  53.2160 193.3380 0001410  98.0240 262.0912 15.08832382104051,6917.904,95.438,540.744,538.793,0.0
53259.0,STARLINK-4140,PAYLOAD,2024-06-06 08:57:25,15.08833066,0.0001236,53.2158,192.7444,92.0353,268.0781,4.9068e-06,-2.1e-06,0.0,0 STARLINK-4140,1 53259U 22086T   24158.37321448 -.00000210  00000-0  49068-5 0  9990,2 53259  53.2158 192.7444 0001236  92.0353 268.0781 15.08833066104259,6917.902,95.438,540.622,538.912,0.0
53259.0,STARLINK-4140,PAYLOAD,2024-06-07 08:48:12,15.08835646,0.0001361,53.2164,188.2856,91.286,268.8288,4.7302e-05,4.65e-06,0.0,0 STARLINK-4140,1 53259U 22086T   24159.36681373  .00000465  00000-0  47302-4 0  9995,2 53259  53.2164 188.2856 0001361  91.2860 268.8288 15.08835646104229,6917.894,95.438,540.7,538.817,0.0
53259.0,STARLINK-4140,PAYLOAD,2024-06-07 18:20:31,15.0883986,0.0001344,53.2164,186.5015,90.7009,269.4137,6.071e-05,6.78e-06,0.0,0 STARLINK-4140,1 53259U 22086T   24159.76425150  .00000678  00000-0  60710-4 0  9992,2 53259  53.2164 186.5015 0001344  90.7009 269.4137 15.08839860104465,6917.881,95.438,540.676,538.816,0.0
53259.0,STARLINK-4140,PAYLOAD,2024-06-08 08:38:59,15.08839068,0.0001358,53.2166,183.8248,89.127,270.9878,0.00010223,1.339e-05,0.0,0 STARLINK-4140,1 53259U 22086T   24160.36041213  .00001339  00000-0  10223-3 0  9992,2 53259  53.2166 183.8248 0001358  89.1270 270.9878 15.08839068104551,6917.883,95.438,540.688,538.809,0.0
53259.0,STARLINK-4140,PAYLOAD,2024-06-08 18:11:18,15.08843721,0.0001371,53.217,182.0409,89.1556,270.9593,0.00010467,1.378e-05,0.0,0 STARLINK-4140,1 53259U 22086T   24160.75784891  .00001378  00000-0  10467-3 0  9994,2 53259  53.2170 182.0409 0001371  89.1556 270.9593 15.08843721104430,6917.869,95.437,540.682,538.786,0.0
53259.0,STARLINK-4140,PAYLOAD,2024-06-09 05:19:01,15.08829847,0.0001258,53.2163,179.9593,82.1742,277.9393,-1.6028e-05,-5.43e-06,0.0,0 STARLINK-4140,1 53259U 22086T   24161.22154302 -.00000543  00000-0 -16028-4 0  9990,2 53259  53.2163 179.9593 0001258  82.1742 277.9393 15.08829847104501,6917.911,95.438,540.647,538.906,0.0
53259.0,STARLINK-4140,PAYLOAD,2024-06-09 06:54:24,15.08829269,0.0001411,53.2173,179.6628,93.3241,266.7912,-2.1777e-05,-6.34e-06,0.0,0 STARLINK-4140,1 53259U 22086T   24161.28778359 -.00000634  00000-0 -21777-4 0  9998,2 53259  53.2173 179.6628 0001411  93.3241 266.7912 15.08829269104698,6917.913,95.438,540.754,538.802,0.0
53259.0,STARLINK-4140,PAYLOAD,2024-06-09 18:02:06,15.0883561,0.0001299,53.2163,177.5803,86.8455,273.2686,5.7716e-06,-1.96e-06,0.0,0 STARLINK-4140,1 53259U 22086T   24161.75146044 -.00000196  00000-0  57716-5 0  9995,2 53259  53.2163 177.5803 0001299  86.8455 273.2686 15.08835610104583,6917.894,95.438,540.657,538.86,0.0
53259.0,STARLINK-4140,PAYLOAD,2024-06-10 05:09:50,15.08808609,0.0001409,53.217,175.5014,102.8816,257.2334,-0.00020743,-3.585e-05,0.0,0 STARLINK-4140,1 53259U 22086T   24162.21516998 -.00003585  00000-0 -20743-3 0  9990,2 53259  53.2170 175.5014 0001409 102.8816 257.2334 15.08808609104654,6917.976,95.44,540.816,538.867,0.0
53259.0,STARLINK-4140,PAYLOAD,2024-06-10 11:31:21,15.08837014,0.0001382,53.216,174.3103,96.9611,263.1538,4.7112e-05,4.62e-06,0.0,0 STARLINK-4140,1 53259U 22086T   24162.48010797  .00000462  00000-0  47112-4 0  9994,2 53259  53.2160 174.3103 0001382  96.9611 263.1538 15.08837014104693,6917.89,95.438,540.711,538.798,0.0
53259.0,STARLINK-4140,PAYLOAD,2024-06-10 17:52:53,15.08842176,0.0001345,53.2166,173.1192,87.4899,272.6247,4.8517e-05,4.84e-06,0.0,0 STARLINK-4140,1 53259U 22086T   24162.74506477  .00000484  00000-0  48517-4 0  9992,2 53259  53.2166 173.1192 0001345  87.4899 272.6247 15.08842176104918,6917.874,95.437,540.669,538.808,0.0
53259.0,STARLINK-4140,PAYLOAD,2024-06-11 08:11:21,15.08841795,0.0001402,53.2167,170.4424,83.9382,276.177,0.00018992,2.736e-05,0.0,0 STARLINK-4140,1 53259U 22086T   24163.34122369  .00002736  00000-0  18992-3 0  9998,2 53259  53.2167 170.4424 0001402  83.9382 276.1770 15.08841795105006,6917.875,95.437,540.71,538.77,0.0
53259.0,STARLINK-4140,PAYLOAD,2024-06-12 06:26:48,15.087759,0.0001598,53.2164,166.2804,102.7804,257.3366,0.0011722,0.00018384,0.0,0 STARLINK-4140,1 53259U 22086T   24164.26861189  .00018384  00000-0  11722-2 0  9999,2 53259  53.2164 166.2804 0001598 102.7804 257.3366 15.08775900104963,6918.076,95.442,541.047,538.836,0.0
53259.0,STARLINK-4140,PAYLOAD,2024-06-12 17:34:27,15.08850718,0.000145,53.2161,164.1987,84.6018,275.5139,8.5878e-05,1.079e-05,0.0,0 STARLINK-4140,1 53259U 22086T   24164.73226047  .00001079  00000-0  85878-4 0  9997,2 53259  53.2161 164.1987 0001450  84.6018 275.5139 15.08850718105031,6917.848,95.437,540.716,538.71,0.0
